start=new Date('2022-12-27T00:00:00.000Z').valueOf();
sats=[{"OBJECT_NAME":"STARLINK-2196","CLASSIFICATION_TYPE":"U","REV_AT_EPOCH":"10139","EPOCH":"2022-12-26T17:15:20.361024","ARG_OF_PERICENTER":"51.4728","MEAN_MOTION_DDOT":"0.0000000000000","APOAPSIS":"548.405","CENTER_NAME":"EARTH","MEAN_MOTION_DOT":"0.00000902","TIME_SYSTEM":"UTC","MEAN_MOTION":"15.06393717","NORAD_CAT_ID":"47773","SEMIMAJOR_AXIS":"6925.368","MEAN_ELEMENT_THEORY":"SGP4","SITE":"AFETR","ELEMENT_SET_NO":"999","BSTAR":"0.00007943300000","RA_OF_ASC_NODE":"69.3396","RCS_SIZE":"LARGE","EPHEMERIS_TYPE":"0","PERIAPSIS":"546.060","LAUNCH_DATE":"2021-03-04","COUNTRY_CODE":"US","GP_ID":"221523013","PERIOD":"95.593","OBJECT_TYPE":"PAYLOAD","DECAY_DATE":null,"INCLINATION":"53.0550","TLE_LINE1":"1 47773U 21017BD  22360.71898566  .00000902  00000-0  79433-4 0  9993","MEAN_ANOMALY":"308.6412","FILE":"3723236","ECCENTRICITY":"0.00016930","TLE_LINE2":"2 47773  53.0550  69.3396 0001693  51.4728 308.6412 15.06393717101390","OBJECT_ID":"2021-017BD","REF_FRAME":"TEME"},{"OBJECT_TYPE":"PAYLOAD","PERIOD":"95.592","TLE_LINE1":"1 47774U 21017BE  22360.58259536  .00001294  00000-0  10574-3 0  9992","FILE":"3723236","MEAN_ANOMALY":"319.0212","OBJECT_ID":"2021-017BE","REF_FRAME":"TEME","ECCENTRICITY":"0.00021470","TLE_LINE2":"2 47774  53.0547  69.9496 0002147  41.0939 319.0212 15.06403442101388","DECAY_DATE":null,"INCLINATION":"53.0547","ELEMENT_SET_NO":"999","BSTAR":"0.00010574000000","RA_OF_ASC_NODE":"69.9496","SITE":"AFETR","COUNTRY_CODE":"US","GP_ID":"221523263","LAUNCH_DATE":"2021-03-04","PERIAPSIS":"545.716","EPHEMERIS_TYPE":"0","RCS_SIZE":"LARGE","NORAD_CAT_ID":"47774","MEAN_MOTION":"15.06403442","CENTER_NAME":"EARTH","MEAN_MOTION_DOT":"0.00001294","TIME_SYSTEM":"UTC","SEMIMAJOR_AXIS":"6925.338","MEAN_ELEMENT_THEORY":"SGP4","REV_AT_EPOCH":"10138","CLASSIFICATION_TYPE":"U","OBJECT_NAME":"STARLINK-2197","MEAN_MOTION_DDOT":"0.0000000000000","ARG_OF_PERICENTER":"41.0939","APOAPSIS":"548.690","EPOCH":"2022-12-26T13:58:56.239104"},{"SEMIMAJOR_AXIS":"6925.351","MEAN_ELEMENT_THEORY":"SGP4","MEAN_MOTION":"15.06399114","NORAD_CAT_ID":"47775","CENTER_NAME":"EARTH","TIME_SYSTEM":"UTC","MEAN_MOTION_DOT":"0.00000134","ARG_OF_PERICENTER":"60.8278","MEAN_MOTION_DDOT":"0.0000000000000","APOAPSIS":"548.227","EPOCH":"2022-12-26T12:39:19.566720","CLASSIFICATION_TYPE":"U","REV_AT_EPOCH":"10142","OBJECT_NAME":"STARLINK-2198","TLE_LINE1":"1 47775U 21017BF  22360.52730980  .00000134  00000-0  27896-4 0  9992","FILE":"3723236","MEAN_ANOMALY":"299.2857","TLE_LINE2":"2 47775  53.0549  70.1987 0001460  60.8278 299.2857 15.06399114101421","ECCENTRICITY":"0.00014600","REF_FRAME":"TEME","OBJECT_ID":"2021-017BF","DECAY_DATE":null,"INCLINATION":"53.0549","OBJECT_TYPE":"PAYLOAD","PERIOD":"95.592","COUNTRY_CODE":"US","GP_ID":"221524015","EPHEMERIS_TYPE":"0","RCS_SIZE":"LARGE","LAUNCH_DATE":"2021-03-04","PERIAPSIS":"546.205","BSTAR":"0.00002789600000","ELEMENT_SET_NO":"999","RA_OF_ASC_NODE":"70.1987","SITE":"AFETR"},{"REV_AT_EPOCH":"10158","CLASSIFICATION_TYPE":"U","OBJECT_NAME":"STARLINK-2209","MEAN_MOTION_DDOT":"0.0000000000000","ARG_OF_PERICENTER":"41.0059","APOAPSIS":"548.636","EPOCH":"2022-12-26T21:15:30.266208","NORAD_CAT_ID":"47776","MEAN_MOTION":"15.06395289","CENTER_NAME":"EARTH","MEAN_MOTION_DOT":"0.00000014","TIME_SYSTEM":"UTC","SEMIMAJOR_AXIS":"6925.363","MEAN_ELEMENT_THEORY":"SGP4","ELEMENT_SET_NO":"999","BSTAR":"0.00001986600000","RA_OF_ASC_NODE":"58.5902","SITE":"AFETR","COUNTRY_CODE":"US","GP_ID":"221523766","PERIAPSIS":"545.820","LAUNCH_DATE":"2021-03-04","RCS_SIZE":"LARGE","EPHEMERIS_TYPE":"0","OBJECT_TYPE":"PAYLOAD","PERIOD":"95.592","FILE":"3723236","TLE_LINE1":"1 47776U 21017BG  22360.88576697  .00000014  00000-0  19866-4 0  9990","MEAN_ANOMALY":"319.1083","OBJECT_ID":"2021-017BG","REF_FRAME":"TEME","TLE_LINE2":"2 47776  53.0549  58.5902 0002033  41.0059 319.1083 15.06395289101583","ECCENTRICITY":"0.00020330","DECAY_DATE":null,"INCLINATION":"53.0549"},{"SITE":"AFETR","ELEMENT_SET_NO":"999","BSTAR":"0.00010599000000","RA_OF_ASC_NODE":"58.5719","RCS_SIZE":"LARGE","EPHEMERIS_TYPE":"0","PERIAPSIS":"545.495","LAUNCH_DATE":"2021-03-04","COUNTRY_CODE":"US","GP_ID":"221522514","PERIOD":"95.592","OBJECT_TYPE":"PAYLOAD","DECAY_DATE":null,"INCLINATION":"53.0551","TLE_LINE1":"1 47777U 21017BH  22360.88945060  .00001297  00000-0  10599-3 0  9992","MEAN_ANOMALY":"325.2678","FILE":"3723236","ECCENTRICITY":"0.00024800","TLE_LINE2":"2 47777  53.0551  58.5719 0002480  34.8473 325.2678 15.06400327101587","REF_FRAME":"TEME","OBJECT_ID":"2021-017BH","OBJECT_NAME":"STARLINK-2210","CLASSIFICATION_TYPE":"U","REV_AT_EPOCH":"10158","EPOCH":"2022-12-26T21:20:48.531840","ARG_OF_PERICENTER":"34.8473","MEAN_MOTION_DDOT":"0.0000000000000","APOAPSIS":"548.930","CENTER_NAME":"EARTH","MEAN_MOTION_DOT":"0.00001297","TIME_SYSTEM":"UTC","MEAN_MOTION":"15.06400327","NORAD_CAT_ID":"47777","SEMIMAJOR_AXIS":"6925.348","MEAN_ELEMENT_THEORY":"SGP4"},{"PERIOD":"95.592","OBJECT_TYPE":"PAYLOAD","DECAY_DATE":null,"INCLINATION":"53.0569","FILE":"3723236","TLE_LINE1":"1 47778U 21017BJ  22360.85628054  .00001055  00000-0  89727-4 0  9993","MEAN_ANOMALY":"313.0051","TLE_LINE2":"2 47778  53.0569  58.7211 0002015  47.1107 313.0051 15.06395450101570","ECCENTRICITY":"0.00020150","REF_FRAME":"TEME","OBJECT_ID":"2021-017BJ","SITE":"AFETR","ELEMENT_SET_NO":"999","BSTAR":"0.00008972700000","RA_OF_ASC_NODE":"58.7211","RCS_SIZE":"LARGE","EPHEMERIS_TYPE":"0","PERIAPSIS":"545.832","LAUNCH_DATE":"2021-03-04","COUNTRY_CODE":"US","GP_ID":"221522764","CENTER_NAME":"EARTH","TIME_SYSTEM":"UTC","MEAN_MOTION_DOT":"0.00001055","MEAN_MOTION":"15.06395450","NORAD_CAT_ID":"47778","SEMIMAJOR_AXIS":"6925.363","MEAN_ELEMENT_THEORY":"SGP4","OBJECT_NAME":"STARLINK-2211","CLASSIFICATION_TYPE":"U","REV_AT_EPOCH":"10157","EPOCH":"2022-12-26T20:33:02.638656","ARG_OF_PERICENTER":"47.1107","MEAN_MOTION_DDOT":"0.0000000000000","APOAPSIS":"548.623"},{"APOAPSIS":"519.622","ARG_OF_PERICENTER":"71.8116","MEAN_MOTION_DDOT":"0.0000000000000","EPOCH":"2022-12-26T20:01:18.709248","CLASSIFICATION_TYPE":"U","REV_AT_EPOCH":"10186","OBJECT_NAME":"STARLINK-2212","SEMIMAJOR_AXIS":"6896.752","MEAN_ELEMENT_THEORY":"SGP4","MEAN_MOTION":"15.15778931","NORAD_CAT_ID":"47779","MEAN_MOTION_DOT":"0.00034090","TIME_SYSTEM":"UTC","CENTER_NAME":"EARTH","GP_ID":"221523516","COUNTRY_CODE":"US","EPHEMERIS_TYPE":"0","RCS_SIZE":"LARGE","PERIAPSIS":"517.612","LAUNCH_DATE":"2021-03-04","RA_OF_ASC_NODE":"38.9431","BSTAR":"0.00177250000000","ELEMENT_SET_NO":"999","SITE":"AFETR","ECCENTRICITY":"0.00014570","TLE_LINE2":"2 47779  53.0528  38.9431 0001457  71.8116 288.3036 15.15778931101861","OBJECT_ID":"2021-017BK","REF_FRAME":"TEME","TLE_LINE1":"1 47779U 21017BK  22360.83424432  .00034090  00000-0  17725-2 0  9998","FILE":"3723236","MEAN_ANOMALY":"288.3036","INCLINATION":"53.0528","DECAY_DATE":null,"OBJECT_TYPE":"PAYLOAD","PERIOD":"95.001"},{"MEAN_ELEMENT_THEORY":"SGP4","SEMIMAJOR_AXIS":"6925.360","CENTER_NAME":"EARTH","TIME_SYSTEM":"UTC","MEAN_MOTION_DOT":"0.00000656","NORAD_CAT_ID":"47780","MEAN_MOTION":"15.06396333","EPOCH":"2022-12-26T21:10:13.002816","MEAN_MOTION_DDOT":"0.0000000000000","ARG_OF_PERICENTER":"40.9791","APOAPSIS":"548.737","OBJECT_NAME":"STARLINK-2213","REV_AT_EPOCH":"10161","CLASSIFICATION_TYPE":"U","DECAY_DATE":null,"INCLINATION":"53.0567","FILE":"3723236","TLE_LINE1":"1 47780U 21017BL  22360.88209494  .00000656  00000-0  62944-4 0  9990","MEAN_ANOMALY":"319.1362","REF_FRAME":"TEME","OBJECT_ID":"2021-017BL","TLE_LINE2":"2 47780  53.0567  58.6056 0002183  40.9791 319.1362 15.06396333101611","ECCENTRICITY":"0.00021830","PERIOD":"95.592","OBJECT_TYPE":"PAYLOAD","PERIAPSIS":"545.713","LAUNCH_DATE":"2021-03-04","EPHEMERIS_TYPE":"0","RCS_SIZE":"LARGE","COUNTRY_CODE":"US","GP_ID":"221524266","SITE":"AFETR","ELEMENT_SET_NO":"999","BSTAR":"0.00006294400000","RA_OF_ASC_NODE":"58.6056"},{"INCLINATION":"53.0549","DECAY_DATE":null,"REF_FRAME":"TEME","OBJECT_ID":"2021-017BM","ECCENTRICITY":"0.00019480","TLE_LINE2":"2 47781  53.0549  59.9419 0001948  59.2493 300.8688 15.06407433101521","TLE_LINE1":"1 47781U 21017BM  22360.58352420  .00006471  00000-0  45285-3 0  9995","MEAN_ANOMALY":"300.8688","FILE":"3723236","PERIOD":"95.592","OBJECT_TYPE":"PAYLOAD","PERIAPSIS":"545.842","LAUNCH_DATE":"2021-03-04","EPHEMERIS_TYPE":"0","RCS_SIZE":"LARGE","GP_ID":"221523014","COUNTRY_CODE":"US","SITE":"AFETR","RA_OF_ASC_NODE":"59.9419","BSTAR":"0.00045285000000","ELEMENT_SET_NO":"999","SEMIMAJOR_AXIS":"6925.326","MEAN_ELEMENT_THEORY":"SGP4","MEAN_MOTION_DOT":"0.00006471","TIME_SYSTEM":"UTC","CENTER_NAME":"EARTH","NORAD_CAT_ID":"47781","MEAN_MOTION":"15.06407433","EPOCH":"2022-12-26T14:00:16.490880","APOAPSIS":"548.540","MEAN_MOTION_DDOT":"0.0000000000000","ARG_OF_PERICENTER":"59.2493","OBJECT_NAME":"STARLINK-2223","REV_AT_EPOCH":"10152","CLASSIFICATION_TYPE":"U"},{"CLASSIFICATION_TYPE":"U","REV_AT_EPOCH":"10041","OBJECT_NAME":"STARLINK-2257","ARG_OF_PERICENTER":"66.9542","MEAN_MOTION_DDOT":"0.0000000000000","APOAPSIS":"548.173","EPOCH":"2022-12-26T19:13:24.928608","MEAN_MOTION":"15.06404616","NORAD_CAT_ID":"47787","CENTER_NAME":"EARTH","MEAN_MOTION_DOT":"0.00001241","TIME_SYSTEM":"UTC","SEMIMAJOR_AXIS":"6925.334","MEAN_ELEMENT_THEORY":"SGP4","BSTAR":"0.00010216000000","ELEMENT_SET_NO":"999","RA_OF_ASC_NODE":"98.9668","SITE":"AFETR","COUNTRY_CODE":"US","GP_ID":"221523264","RCS_SIZE":"LARGE","EPHEMERIS_TYPE":"0","LAUNCH_DATE":"2021-03-11","PERIAPSIS":"546.226","OBJECT_TYPE":"PAYLOAD","PERIOD":"95.592","TLE_LINE1":"1 47787U 21018A   22360.80098297  .00001241  00000-0  10216-3 0  9992","MEAN_ANOMALY":"293.1595","FILE":"3723236","ECCENTRICITY":"0.00014060","TLE_LINE2":"2 47787  53.0553  98.9668 0001406  66.9542 293.1595 15.06404616100418","REF_FRAME":"TEME","OBJECT_ID":"2021-018A","DECAY_DATE":null,"INCLINATION":"53.0553"}];
